NORAD_CAT_ID,OBJECT_NAME,OBJECT_TYPE,EPOCH,MEAN_MOTION,ECCENTRICITY,INCLINATION,RA_OF_ASC_NODE,ARG_OF_PERICENTER,MEAN_ANOMALY,BSTAR,MEAN_MOTION_DOT,MEAN_MOTION_DDOT,TLE_LINE0,TLE_LINE1,TLE_LINE2,SEMIMAJOR_AXIS,PERIOD,APOGEE,PERIGEE,DECAYED
53925.0,STARLINK-5011,PAYLOAD,2024-03-18 21:14:34,15.08840389,0.0001286,53.2175,309.5382,94.396,265.7179,8.9773e-05,1.141e-05,0.0,0 STARLINK-5011,1 53925U 22119AR  24078.88512361  .00001141  00000-0  89773-4 0  9999,2 53925  53.2175 309.5382 0001286  94.3960 265.7179 15.08840389 83012,6917.879,95.438,540.634,538.855,0.0
53925.0,STARLINK-5011,PAYLOAD,2024-03-19 00:25:20,15.08843183,0.0001261,53.2176,308.9435,93.2544,266.8593,0.00010894,1.446e-05,0.0,0 STARLINK-5011,1 53925U 22119AR  24079.01760134  .00001446  00000-0  10894-3 0  9993,2 53925  53.2176 308.9435 0001261  93.2544 266.8593 15.08843183 82616,6917.871,95.437,540.608,538.863,0.0
53925.0,STARLINK-5011,PAYLOAD,2024-03-20 00:16:06,15.08853426,0.0001205,53.2168,304.4827,97.2065,262.9064,0.00015421,2.168e-05,0.0,0 STARLINK-5011,1 53925U 22119AR  24080.01119087  .00002168  00000-0  15421-3 0  9993,2 53925  53.2168 304.4827 0001205  97.2065 262.9064 15.08853426 82760,6917.839,95.437,540.538,538.871,0.0
53925.0,STARLINK-5011,PAYLOAD,2024-03-20 20:56:08,15.08844674,0.0001364,53.2167,300.6168,133.081,227.0296,3.4181e-05,2.56e-06,0.0,0 STARLINK-5011,1 53925U 22119AR  24080.87231685  .00000256  00000-0  34181-4 0  9997,2 53925  53.2167 300.6168 0001364 133.0810 227.0296 15.08844674 82896,6917.866,95.437,540.675,538.788,0.0
53925.0,STARLINK-5011,PAYLOAD,2024-03-21 08:03:50,15.08839552,0.0001121,53.2173,298.5326,99.7685,260.3434,-1.336e-05,-5e-06,0.0,0 STARLINK-5011,1 53925U 22119AR  24081.33600218 -.00000500  00000-0 -13360-4 0  9991,2 53925  53.2173 298.5326 0001121  99.7685 260.3434 15.08839552 82964,6917.882,95.438,540.522,538.971,0.0
53925.0,STARLINK-5011,PAYLOAD,2024-03-21 20:46:55,15.08843325,0.0001294,53.2174,296.1579,85.4928,274.6212,4.527e-05,4.33e-06,0.0,0 STARLINK-5011,1 53925U 22119AR  24081.86591981  .00000433  00000-0  45270-4 0  9993,2 53925  53.2174 296.1579 0001294  85.4928 274.6212 15.08843325 83463,6917.87,95.437,540.63,538.84,0.0
53925.0,STARLINK-5011,PAYLOAD,2024-03-22 20:37:44,15.08821162,0.0001268,53.2177,291.6935,102.1947,257.9187,4.0311e-05,3.53e-06,0.0,0 STARLINK-5011,1 53925U 22119AR  24082.85954062  .00000353  00000-0  40311-4 0  9998,2 53925  53.2177 291.6935 0001268 102.1947 257.9187 15.08821162 83191,6917.938,95.439,540.68,538.926,0.0
53925.0,STARLINK-5011,PAYLOAD,2024-03-23 20:28:30,15.0885528,0.0001047,53.2154,287.2364,93.9169,266.1943,0.00050523,7.765e-05,0.0,0 STARLINK-5011,1 53925U 22119AR  24083.85313059  .00007765  00000-0  50523-3 0  9993,2 53925  53.2154 287.2364 0001047  93.9169 266.1943 15.08855280 83348,6917.834,95.437,540.423,538.974,0.0
53925.0,STARLINK-5011,PAYLOAD,2024-03-24 13:57:45,15.08821412,0.0001402,53.2152,283.9651,73.1033,287.0113,-0.00038128,-6.348e-05,0.0,0 STARLINK-5011,1 53925U 22119AR  24084.58178079 -.00006348  00000-0 -38128-3 0  9990,2 53925  53.2152 283.9651 0001402  73.1033 287.0113 15.08821412 83872,6917.937,95.439,540.772,538.832,0.0
53925.0,STARLINK-5011,PAYLOAD,2024-03-24 20:19:18,15.08831926,9.52e-05,53.215,282.7748,57.4419,302.6665,0.00041392,6.304e-05,0.0,0 STARLINK-5011,1 53925U 22119AR  24084.84674346  .00006304  00000-0  41392-3 0  9994,2 53925  53.2150 282.7748 0000952  57.4419 302.6665 15.08831926 83491,6917.905,95.438,540.429,539.111,0.0
53925.0,STARLINK-5011,PAYLOAD,2024-03-25 12:13:09,15.08871013,0.000112,53.2137,279.7981,30.662,329.4438,0.0025098,0.00039916,0.0,0 STARLINK-5011,1 53925U 22119AR  24085.50914121  .00039916  00000-0  25098-2 0  9995,2 53925  53.2137 279.7981 0001120  30.6620 329.4438 15.08871013 83593,6917.786,95.436,540.425,538.876,0.0
53925.0,STARLINK-5011,PAYLOAD,2024-03-25 20:10:04,15.08867775,0.0001395,53.2148,278.3151,84.794,275.3211,-0.00014426,-2.585e-05,0.0,0 STARLINK-5011,1 53925U 22119AR  24085.84033130 -.00002585  00000-0 -14426-3 0  9992,2 53925  53.2148 278.3151 0001395  84.7940 275.3211 15.08867775 83642,6917.795,95.436,540.626,538.695,0.0
53925.0,STARLINK-5011,PAYLOAD,2024-03-26 12:03:56,15.08839088,0.0002401,53.2145,275.3396,79.223,280.9033,0.00047751,7.319e-05,0.0,0 STARLINK-5011,1 53925U 22119AR  24086.50273390  .00007319  00000-0  47751-3 0  9995,2 53925  53.2145 275.3396 0002401  79.2230 280.9033 15.08839088 83748,6917.883,95.438,541.409,538.087,0.0
53925.0,STARLINK-5011,PAYLOAD,2024-03-26 20:00:52,15.08827604,0.0001382,53.2148,273.854,80.1866,279.9282,0.0012739,0.00020037,0.0,0 STARLINK-5011,1 53925U 22119AR  24086.83393572  .00020037  00000-0  12739-2 0  9995,2 53925  53.2148 273.8540 0001382  80.1866 279.9282 15.08827604 83798,6917.918,95.438,540.739,538.827,0.0
53925.0,STARLINK-5011,PAYLOAD,2024-03-27 05:33:10,15.08846826,0.000133,53.2145,272.0685,82.1229,277.9914,0.0017129,0.00027083,0.0,0 STARLINK-5011,1 53925U 22119AR  24087.23137657  .00027083  00000-0  17129-2 0  9996,2 53925  53.2145 272.0685 0001330  82.1229 277.9914 15.08846826 84275,6917.86,95.437,540.645,538.804,0.0
53925.0,STARLINK-5011,PAYLOAD,2024-03-27 18:16:15,15.0885006,0.0001407,53.2145,269.6905,82.7853,277.3299,0.00085718,0.00013384,0.0,0 STARLINK-5011,1 53925U 22119AR  24087.76129569  .00013384  00000-0  85718-3 0  9996,2 53925  53.2145 269.6905 0001407  82.7853 277.3299 15.08850060 83933,6917.85,95.437,540.688,538.741,0.0
53925.0,STARLINK-5011,PAYLOAD,2024-03-27 21:27:02,15.08856448,0.000142,53.2149,269.0958,82.1409,277.9744,0.00095256,0.00014911,0.0,0 STARLINK-5011,1 53925U 22119AR  24087.89377399  .00014911  00000-0  95256-3 0  9991,2 53925  53.2149 269.0958 0001420  82.1409 277.9744 15.08856448 84371,6917.83,95.437,540.677,538.713,0.0
53925.0,STARLINK-5011,PAYLOAD,2024-03-28 11:45:30,15.08842103,0.0001402,53.2146,266.4191,89.5187,270.5966,3.3328e-05,2.43e-06,0.0,0 STARLINK-5011,1 53925U 22119AR  24088.48993351  .00000243  00000-0  33328-4 0  9995,2 53925  53.2146 266.4191 0001402  89.5187 270.5966 15.08842103 84044,6917.874,95.437,540.709,538.769,0.0
53925.0,STARLINK-5011,PAYLOAD,2024-03-28 13:20:53,15.08842778,0.0001421,53.2146,266.1218,88.4538,271.6617,7.5867e-05,9.2e-06,0.0,0 STARLINK-5011,1 53925U 22119AR  24088.55617353  .00000920  00000-0  75867-4 0  9994,2 53925  53.2146 266.1218 0001421  88.4538 271.6617 15.08842778 84470,6917.872,95.437,540.72,538.754,0.0
53925.0,STARLINK-5011,PAYLOAD,2024-03-28 21:17:48,15.08849809,0.0001381,53.215,264.6343,88.8766,271.2384,0.0004933,7.574e-05,0.0,0 STARLINK-5011,1 53925U 22119AR  24088.88737249  .00007574  00000-0  49330-3 0  9994,2 53925  53.2150 264.6343 0001381  88.8766 271.2384 15.08849809 84524,6917.85,95.437,540.671,538.76,0.0
53925.0,STARLINK-5011,PAYLOAD,2024-03-29 13:11:40,15.08843138,0.0001406,53.2148,261.6603,90.6733,269.442,0.00048895,7.503e-05,0.0,0 STARLINK-5011,1 53925U 22119AR  24089.54977437  .00007503  00000-0  48895-3 0  9990,2 53925  53.2148 261.6603 0001406  90.6733 269.4420 15.08843138 84620,6917.871,95.437,540.708,538.763,0.0
53925.0,STARLINK-5011,PAYLOAD,2024-03-29 19:33:15,15.08700564,0.0001416,53.2158,260.4711,94.4308,265.6845,-0.0053285,-0.00083785,0.0,0 STARLINK-5011,1 53925U 22119AR  24089.81476037 -.00083785  00000-0 -53285-2 0  9996,2 53925  53.2158 260.4711 0001416  94.4308 265.6845 15.08700564 84241,6918.307,95.446,541.151,539.192,0.0
53925.0,STARLINK-5011,PAYLOAD,2024-03-29 21:08:37,15.08784293,0.0001172,53.2158,260.1737,86.5183,273.5943,-0.0013444,-0.00021587,0.0,0 STARLINK-5011,1 53925U 22119AR  24089.88099054 -.00021587  00000-0 -13444-2 0  9998,2 53925  53.2158 260.1737 0001172  86.5183 273.5943 15.08784293 84673,6918.051,95.441,540.726,539.105,0.0
53925.0,STARLINK-5011,PAYLOAD,2024-03-29 22:44:00,15.08783461,0.0001106,53.2157,259.8764,84.9035,275.2083,-0.0012721,-0.00020445,0.0,0 STARLINK-5011,1 53925U 22119AR  24089.94723267 -.00020445  00000-0 -12721-2 0  9994,2 53925  53.2157 259.8764 0001106  84.9035 275.2083 15.08783461 84267,6918.053,95.441,540.683,539.153,0.0
53925.0,STARLINK-5011,PAYLOAD,2024-03-30 11:27:05,15.08835827,0.0001092,53.2159,257.4978,107.8935,252.2177,0.00061662,9.538e-05,0.0,0 STARLINK-5011,1 53925U 22119AR  24090.47715043  .00009538  00000-0  61662-3 0  9994,2 53925  53.2159 257.4978 0001092 107.8935 252.2177 15.08835827 84340,6917.893,95.438,540.514,539.003,0.0
53925.0,STARLINK-5011,PAYLOAD,2024-03-30 14:37:52,15.08845698,0.0001054,53.2158,256.9034,101.2088,258.9023,0.00098708,0.00015459,0.0,0 STARLINK-5011,1 53925U 22119AR  24090.60963019  .00015459  00000-0  98708-3 0  9997,2 53925  53.2158 256.9034 0001054 101.2088 258.9023 15.08845698 84789,6917.863,95.437,540.457,538.999,0.0
53925.0,STARLINK-5011,PAYLOAD,2024-03-30 22:34:47,15.08872291,9.31e-05,53.2159,255.4167,104.5332,255.5763,0.0019588,0.00031052,0.0,0 STARLINK-5011,1 53925U 22119AR  24090.94083007  .00031052  00000-0  19588-2 0  9999,2 53925  53.2159 255.4167 0000931 104.5332 255.5763 15.08872291 84831,6917.782,95.436,540.291,539.003,0.0
53925.0,STARLINK-5011,PAYLOAD,2024-03-31 03:20:56,15.08886912,8.73e-05,53.216,254.5244,105.8089,254.2999,0.0021855,0.00034711,0.0,0 STARLINK-5011,1 53925U 22119AR  24091.13954451  .00034711  00000-0  21855-2 0  9996,2 53925  53.2160 254.5244 0000873 105.8089 254.2999 15.08886912 84446,6917.737,95.435,540.206,538.998,0.0
53925.0,STARLINK-5011,PAYLOAD,2024-03-31 09:42:29,15.08882732,0.000209,53.2162,253.3345,84.102,276.021,0.0016521,0.00026134,0.0,0 STARLINK-5011,1 53925U 22119AR  24091.40450379  .00026134  00000-0  16521-2 0  9990,2 53925  53.2162 253.3345 0002090  84.1020 276.0210 15.08882732 84482,6917.75,95.435,541.061,538.169,0.0
53925.0,STARLINK-5011,PAYLOAD,2024-03-31 14:28:38,15.08872243,0.0001057,53.2161,252.4431,104.8714,255.2396,0.00067135,0.00010422,0.0,0 STARLINK-5011,1 53925U 22119AR  24091.60321831  .00010422  00000-0  67135-3 0  9993,2 53925  53.2161 252.4431 0001057 104.8714 255.2396 15.08872243 84939,6917.782,95.436,540.378,538.916,0.0
